NORAD_CAT_ID,OBJECT_NAME,OBJECT_TYPE,EPOCH,MEAN_MOTION,ECCENTRICITY,INCLINATION,RA_OF_ASC_NODE,ARG_OF_PERICENTER,MEAN_ANOMALY,BSTAR,MEAN_MOTION_DOT,MEAN_MOTION_DDOT,TLE_LINE0,TLE_LINE1,TLE_LINE2,SEMIMAJOR_AXIS,PERIOD,APOGEE,PERIGEE,DECAYED
49434.0,STARLINK-3134,PAYLOAD,2024-02-03 19:18:47,15.08843168,0.0001346,53.2169,62.9725,100.3602,259.7542,5.5721e-05,5.99e-06,0.0,0 STARLINK-3134,1 49434U 21104AC  24034.80471690  .00000599  00000-0  55721-4 0  9997,2 49434  53.2169  62.9725 0001346 100.3602 259.7542 15.08843168124240,6917.871,95.437,540.667,538.805,0.0
49434.0,STARLINK-3134,PAYLOAD,2024-02-04 11:12:38,15.08853406,0.0001505,53.2171,60.0015,105.8825,254.2333,7.2018e-05,8.59e-06,0.0,0 STARLINK-3134,1 49434U 21104AC  24035.46710900  .00000859  00000-0  72018-4 0  9997,2 49434  53.2171  60.0015 0001505 105.8825 254.2333 15.08853406124343,6917.839,95.437,540.746,538.663,0.0
49434.0,STARLINK-3134,PAYLOAD,2024-02-05 04:41:53,15.08841444,0.0001869,53.2165,56.7285,117.0452,243.0731,5.4337e-05,5.77e-06,0.0,0 STARLINK-3134,1 49434U 21104AC  24036.19575534  .00000577  00000-0  54337-4 0  9991,2 49434  53.2165  56.7285 0001869 117.0452 243.0731 15.08841444124450,6917.876,95.437,541.034,538.448,0.0
49434.0,STARLINK-3134,PAYLOAD,2024-02-05 07:52:39,15.08842462,0.0001547,53.2171,56.1372,90.939,269.178,6.5417e-05,7.53e-06,0.0,0 STARLINK-3134,1 49434U 21104AC  24036.32823675  .00000753  00000-0  65417-4 0  9995,2 49434  53.2171  56.1372 0001547  90.9390 269.1780 15.08842462124477,6917.873,95.437,540.808,538.668,0.0
49434.0,STARLINK-3134,PAYLOAD,2024-02-06 04:32:40,15.088358,0.0001637,53.2175,52.2695,107.5218,252.5953,2.4915e-05,1.08e-06,0.0,0 STARLINK-3134,1 49434U 21104AC  24037.18936181  .00000108  00000-0  24915-4 0  9999,2 49434  53.2175  52.2695 0001637 107.5218 252.5953 15.08835800124601,6917.893,95.438,540.891,538.626,0.0
49434.0,STARLINK-3134,PAYLOAD,2024-02-06 06:08:03,15.08839709,0.0001839,53.2176,51.9722,102.1006,258.0193,-1.9061e-05,-5.91e-06,0.0,0 STARLINK-3134,1 49434U 21104AC  24037.25560134 -.00000591  00000-0 -19061-4 0  9992,2 49434  53.2176  51.9722 0001839 102.1006 258.0193 15.08839709124619,6917.881,95.438,541.018,538.474,0.0
49434.0,STARLINK-3134,PAYLOAD,2024-02-07 05:58:51,15.08833053,0.0001878,53.2181,47.5145,117.4573,242.661,2.7397e-05,1.48e-06,0.0,0 STARLINK-3134,1 49434U 21104AC  24038.24920638  .00000148  00000-0  27397-4 0  9998,2 49434  53.2181  47.5145 0001878 117.4573 242.6610 15.08833053124761,6917.902,95.438,541.066,538.467,0.0
49434.0,STARLINK-3134,PAYLOAD,2024-02-08 09:00:24,15.08843878,0.0001532,53.2178,42.4588,93.8907,266.2261,0.00013815,1.912e-05,0.0,0 STARLINK-3134,1 49434U 21104AC  24039.37528381  .00001912  00000-0  13815-3 0  9991,2 49434  53.2178  42.4588 0001532  93.8907 266.2261 15.08843878124936,6917.869,95.437,540.793,538.674,0.0
49434.0,STARLINK-3134,PAYLOAD,2024-02-09 04:05:02,15.08822288,0.0001686,53.2182,38.891,94.7371,265.3813,0.00033266,5.008e-05,0.0,0 STARLINK-3134,1 49434U 21104AC  24040.17017348  .00005008  00000-0  33266-3 0  9999,2 49434  53.2182  38.8910 0001686  94.7371 265.3813 15.08822288125053,6917.935,95.439,540.966,538.633,0.0
49434.0,STARLINK-3134,PAYLOAD,2024-02-09 10:26:34,15.08845893,0.0001646,53.2183,37.7004,91.1188,268.9993,0.00017956,2.571e-05,0.0,0 STARLINK-3134,1 49434U 21104AC  24040.43512385  .00002571  00000-0  17956-3 0  9999,2 49434  53.2183  37.7004 0001646  91.1188 268.9993 15.08845893125098,6917.862,95.437,540.866,538.589,0.0
49434.0,STARLINK-3134,PAYLOAD,2024-02-10 03:55:49,15.08845027,0.000148,53.2181,34.4288,100.0206,260.0953,1.5498e-05,-4.1e-07,0.0,0 STARLINK-3134,1 49434U 21104AC  24041.16376876 -.00000041  00000-0  15498-4 0  9994,2 49434  53.2181  34.4288 0001480 100.0206 260.0953 15.08845027125202,6917.865,95.437,540.754,538.706,0.0
49434.0,STARLINK-3134,PAYLOAD,2024-02-10 08:41:58,15.08849114,0.0001548,53.2183,33.5375,90.346,269.771,6.4561e-05,7.4e-06,0.0,0 STARLINK-3134,1 49434U 21104AC  24041.36248571  .00000740  00000-0  64561-4 0  9996,2 49434  53.2183  33.5375 0001548  90.3460 269.7710 15.08849114125230,6917.853,95.437,540.788,538.647,0.0
49434.0,STARLINK-3134,PAYLOAD,2024-02-11 05:21:59,15.08847721,0.000177,53.22,29.6632,97.63,262.4893,-3.6258e-05,-8.65e-06,0.0,0 STARLINK-3134,1 49434U 21104AC  24042.22360763 -.00000865  00000-0 -36258-4 0  9992,2 49434  53.2200  29.6632 0001770  97.6300 262.4893 15.08847721125360,6917.857,95.437,540.946,538.497,0.0
49434.0,STARLINK-3134,PAYLOAD,2024-02-12 08:23:32,15.08856906,0.0001881,53.2189,24.6077,114.9351,245.1836,0.00026447,3.925e-05,0.0,0 STARLINK-3134,1 49434U 21104AC  24043.34967804  .00003925  00000-0  26447-3 0  9991,2 49434  53.2189  24.6077 0001881 114.9351 245.1836 15.08856906125535,6917.829,95.436,540.995,538.392,0.0
49434.0,STARLINK-3134,PAYLOAD,2024-02-12 22:42:01,15.08834824,0.0001699,53.2194,21.9393,99.8195,260.2989,-7.3945e-05,-1.465e-05,0.0,0 STARLINK-3134,1 49434U 21104AC  24043.94585081 -.00001465  00000-0 -73945-4 0  9995,2 49434  53.2194  21.9393 0001699  99.8195 260.2989 15.08834824125628,6917.896,95.438,540.937,538.586,0.0
49434.0,STARLINK-3134,PAYLOAD,2024-02-13 03:28:10,15.08836471,0.0001614,53.2184,21.0497,102.9892,257.128,-2.6148e-05,-7.04e-06,0.0,0 STARLINK-3134,1 49434U 21104AC  24044.14457043 -.00000704  00000-0 -26148-4 0  9992,2 49434  53.2184  21.0497 0001614 102.9892 257.1280 15.08836471125652,6917.891,95.438,540.873,538.64,0.0
49434.0,STARLINK-3134,PAYLOAD,2024-02-13 05:03:34,15.08839426,0.0001598,53.2188,20.7529,98.1323,261.9851,3.9195e-05,3.36e-06,0.0,0 STARLINK-3134,1 49434U 21104AC  24044.21081034  .00000336  00000-0  39195-4 0  9998,2 49434  53.2188  20.7529 0001598  98.1323 261.9851 15.08839426125665,6917.882,95.438,540.853,538.642,0.0
49434.0,STARLINK-3134,PAYLOAD,2024-02-13 22:32:48,15.08841434,0.0001534,53.219,17.4815,103.7445,256.3718,7.231e-05,8.63e-06,0.0,0 STARLINK-3134,1 49434U 21104AC  24044.93944982  .00000863  00000-0  72310-4 0  9998,2 49434  53.2190  17.4815 0001534 103.7445 256.3718 15.08841434125771,6917.876,95.437,540.802,538.68,0.0
49434.0,STARLINK-3134,PAYLOAD,2024-02-14 04:54:20,15.08851212,0.0001474,53.2191,16.2942,99.695,260.4209,0.00032354,4.866e-05,0.0,0 STARLINK-3134,1 49434U 21104AC  24045.20440733  .00004866  00000-0  32354-3 0  9994,2 49434  53.2191  16.2942 0001474  99.6950 260.4209 15.08851212125818,6917.846,95.437,540.731,538.691,0.0
49434.0,STARLINK-3134,PAYLOAD,2024-02-14 14:26:40,15.08833046,0.0002111,53.2186,14.5042,91.6192,268.5042,0.0002754,4.097e-05,0.0,0 STARLINK-3134,1 49434U 21104AC  24045.60185736  .00004097  00000-0  27540-3 0  9994,2 49434  53.2186  14.5042 0002111  91.6192 268.5042 15.08833046125878,6917.902,95.438,541.227,538.306,0.0
49434.0,STARLINK-3134,PAYLOAD,2024-02-14 22:23:35,15.08834282,0.0001255,53.219,13.0203,103.9253,256.1879,4.2276e-05,3.85e-06,0.0,0 STARLINK-3134,1 49434U 21104AC  24045.93305369  .00000385  00000-0  42276-4 0  9996,2 49434  53.2190  13.0203 0001255 103.9253 256.1879 15.08834282125929,6917.898,95.438,540.631,538.895,0.0
49434.0,STARLINK-3134,PAYLOAD,2024-02-15 04:45:08,15.08851437,0.0001379,53.2188,11.8318,101.0402,259.0745,0.00052507,8.081e-05,0.0,0 STARLINK-3134,1 49434U 21104AC  24046.19801063  .00008081  00000-0  52507-3 0  9995,2 49434  53.2188  11.8318 0001379 101.0402 259.0745 15.08851437125960,6917.845,95.437,540.664,538.756,0.0
49434.0,STARLINK-3134,PAYLOAD,2024-02-15 07:55:54,15.08854469,0.000146,53.2192,11.2363,104.3183,255.7972,0.00080781,0.00012597,0.0,0 STARLINK-3134,1 49434U 21104AC  24046.33048948  .00012597  00000-0  80781-3 0  9998,2 49434  53.2192  11.2363 0001460 104.3183 255.7972 15.08854469125987,6917.836,95.437,540.711,538.691,0.0
49434.0,STARLINK-3134,PAYLOAD,2024-02-15 14:17:26,15.08844974,0.0001142,53.2173,10.0436,84.0389,276.0733,0.00043338,6.617e-05,0.0,0 STARLINK-3134,1 49434U 21104AC  24046.59545037  .00006617  00000-0  43338-3 0  9990,2 49434  53.2173  10.0436 0001142  84.0389 276.0733 15.08844974126020,6917.865,95.437,540.52,538.94,0.0
49434.0,STARLINK-3134,PAYLOAD,2024-02-15 22:14:23,15.08837329,0.0002059,53.2196,8.5614,96.4372,263.6855,4.3954e-05,4.11e-06,0.0,0 STARLINK-3134,1 49434U 21104AC  24046.92665717  .00000411  00000-0  43954-4 0  9996,2 49434  53.2196   8.5614 0002059  96.4372 263.6855 15.08837329126070,6917.889,95.438,541.178,538.329,0.0
49434.0,STARLINK-3134,PAYLOAD,2024-02-16 04:35:55,15.08841235,0.0001755,53.2193,7.374,107.7094,252.409,0.00027765,4.134e-05,0.0,0 STARLINK-3134,1 49434U 21104AC  24047.19161594  .00004134  00000-0  27765-3 0  9997,2 49434  53.2193   7.3740 0001755 107.7094 252.4090 15.08841235126116,6917.877,95.437,540.956,538.528,0.0
49434.0,STARLINK-3134,PAYLOAD,2024-02-16 14:08:14,15.08844792,0.0001261,53.2174,5.586,87.8731,272.2405,0.00062957,9.747e-05,0.0,0 STARLINK-3134,1 49434U 21104AC  24047.58905599  .00009747  00000-0  62957-3 0  9998,2 49434  53.2174   5.5860 0001261  87.8731 272.2405 15.08844792126173,6917.866,95.437,540.603,538.858,0.0
49434.0,STARLINK-3134,PAYLOAD,2024-02-16 20:29:47,15.08839089,0.0001591,53.2184,4.3981,88.7567,271.3608,0.00029304,4.379e-05,0.0,0 STARLINK-3134,1 49434U 21104AC  24047.85401832  .00004379  00000-0  29304-3 0  9994,2 49434  53.2184   4.3981 0001591  88.7567 271.3608 15.08839089126211,6917.883,95.438,540.849,538.648,0.0
49434.0,STARLINK-3134,PAYLOAD,2024-02-17 02:51:19,15.08838159,0.0001562,53.2188,3.2089,90.5528,269.5643,0.00012412,1.688e-05,0.0,0 STARLINK-3134,1 49434U 21104AC  24048.11897896  .00001688  00000-0  12412-3 0  9995,2 49434  53.2188   3.2089 0001562  90.5528 269.5643 15.08838159126257,6917.886,95.438,540.832,538.67,0.0
49434.0,STARLINK-3134,PAYLOAD,2024-02-17 13:59:01,15.08840408,0.0001496,53.2182,1.1252,79.1702,280.9458,0.00012985,1.779e-05,0.0,0 STARLINK-3134,1 49434U 21104AC  24048.58265885  .00001779  00000-0  12985-3 0  9999,2 49434  53.2182   1.1252 0001496  79.1702 280.9458 15.08840408126322,6917.879,95.438,540.779,538.709,0.0
